{
  "norad_id": 48070,
  "name": "ONEWEB-0171",
  "history": [
    {
      "epoch": "2026-03-28T22:56:05.212896",
      "apogee_km": 1211.1452188138446,
      "perigee_km": 1208.377608746402,
      "latitude_deg": 23.947407938805902,
      "longitude_deg": 158.73912544013,
      "semi_major_axis_km": 7587.898413780123,
      "eccentricity": 0.00018237,
      "inclination_deg": 87.9011,
      "raan_deg": 336.2028,
      "arg_perigee_deg": 81.0373,
      "mean_anomaly_deg": 279.0962,
      "mean_motion_rev_day": 13.13471035
    },
    {
      "epoch": "2026-03-29T04:25:10.367328",
      "apogee_km": 1211.1471025265018,
      "perigee_km": 1208.3714500686328,
      "latitude_deg": 19.32150665123154,
      "longitude_deg": -179.3218140800018,
      "semi_major_axis_km": 7587.896276297567,
      "eccentricity": 0.0001829,
      "inclination_deg": 87.901,
      "raan_deg": 336.1574,
      "arg_perigee_deg": 81.3439,
      "mean_anomaly_deg": 278.7897,
      "mean_motion_rev_day": 13.1347159
    }
  ]
}